0 OBJECT A
1 44235U 19029A   19180.55358870  .00000424  00000-0  48446-4 0  9999
2 44235  53.0045   8.6337 0003413 130.8944 229.2340 15.05458816  6779
0 OBJECT B
1 44236U 19029B   19179.93179237 +.00001672 +00000-0 +13565-3 0  9997
2 44236 052.9992 010.7332 0002362 098.4093 261.7163 15.05073397004762
0 OBJECT C
1 44237U 19029C   19180.02918105  .00000946  00000-0  84078-4 0  9996
2 44237  53.0008  10.8783 0002086 118.0567 242.0632 15.05592535  5575
0 OBJECT C
1 44237U 19029C   19180.16194673  .00000946  00000-0  84139-4 0  9995
2 44237  53.0011  10.2829 0002205 120.3715 239.7491 15.05573371  5593
0 OBJECT C
1 44237U 19029C   19180.82579976  .00000985  00000-0  87000-4 0  9994
2 44237  53.0012   7.3031 0002260 119.3857 240.7357 15.05478025  5696
0 OBJECT D
1 44238U 19029D   19180.86964950  .00000960  00000-0  85899-4 0  9996
2 44238  52.9995   6.4292 0001765 107.0962 253.0219 15.05184946  5638
0 OBJECT D
1 44238U 19029D   19177.94821824 +.00000979 +00000-0 +86709-4 0  9994
2 44238 052.9992 019.5405 0002524 105.5287 254.5980 15.05440046003649
0 OBJECT D
1 44238U 19029D   19180.00626726  .00000931  00000-0  83373-4 0  9991
2 44238  52.9992  10.3030 0002529 110.7839 249.3420 15.05445104  5506
0 OBJECT E
1 44239U 19029E   19179.94943822 +.00000745 +00000-0 +71540-4 0  9998
2 44239 053.0083 011.5604 0003437 126.2077 233.9229 15.04868922004764
0 OBJECT E
1 44239U 19029E   19180.81282123  .00000500  00000-0  54440-4 0  9995
2 44239  53.0085   7.6891 0003444 128.6509 231.4787 15.04869571  5601
0 OBJECT F
1 44240U 19029F   19180.68884274  .00001000  00000-0  86447-4 0  9995
2 44240  53.0056   6.2096 0002298 133.3820 226.7360 15.06216748  5684
0 OBJECT F
1 44240U 19029F   19180.48978315  .00001010  00000-0  86797-4 0  9992
2 44240  53.0079   7.1029 0002508 124.3924 235.7302 15.06374728  5650
0 OBJECT F
1 44240U 19029F   19180.02536154  .00001007  00000-0  86178-4 0  9992
2 44240  53.0072   9.1853 0002502 137.7466 222.3715 15.06557417  5583
0 OBJECT H
1 44242U 19029H   19180.00152790  .00034073  00000-0  23420-2 0  9990
2 44242  52.9995  10.3900 0002256 117.7984 242.3233 15.05648644  5560
0 OBJECT H
1 44242U 19029H   19180.53265721  .00013897  00000-0  97206-3 0  9992
2 44242  52.9996   8.0066 0002293 115.4733 244.6493 15.05539974  5643
0 OBJECT H
1 44242U 19029H   19180.79814681  .00000911  00000-0  81886-4 0  9996
2 44242  52.9999   6.8143 0002066 118.9467 241.1728 15.05493261  5683
0 OBJECT J
1 44243U 19029J   19180.77358476  .00019608  00000-0  45274-3 0  9993
2 44243  53.0023   1.1554 0007995  17.3328 342.7948 15.42536606  5754
0 OBJECT K
1 44244U 19029K   19180.04025172  .00000968  00000-0  85788-4 0  9992
2 44244  53.0030  10.6585 0002212 114.5522 245.5696 15.05491436  5542
0 OBJECT L
1 44245U 19029L   19180.48871254  .00000961  00000-0  83611-4 0  9997
2 44245  53.0042   8.9218 0003451  30.6678 329.4512 15.06335543  5620
0 OBJECT M
1 44246U 19029M   19179.96504559  .00000929  00000-0  83113-4 0  9991
2 44246  53.0017  11.1408 0001847 121.7965 238.3202 15.05484289  5500
0 OBJECT M
1 44246U 19029M   19179.83227180 +.00000929 +00000-0 +83131-4 0  9999
2 44246 053.0017 011.7367 0001849 121.6020 238.5149 15.05484001005484
0 OBJECT N
1 44247U 19029N   19179.90871568 +.00000934 +00000-0 +83687-4 0  9995
2 44247 053.0037 011.2322 0002272 119.5283 240.5932 15.05386924004769
0 OBJECT N
1 44247U 19029N   19180.77180054  .00000826  00000-0  76259-4 0  9992
2 44247  53.0035   7.3589 0002282 121.4378 238.6833 15.05388506  5707
0 OBJECT P
1 44248U 19029P   19180.80519154  .00000879  00000-0  79795-4 0  9990
2 44248  52.9997   6.6758 0002367 110.7371 249.3870 15.05436346  5639
0 OBJECT P
1 44248U 19029P   19179.80935576 +.00000923 +00000-0 +82827-4 0  9998
2 44248 052.9997 011.1452 0002371 109.3137 250.8108 15.05434497003926
0 OBJECT Q
1 44249U 19029Q   19179.83812947 -.00000332 +00000-0 -18804-5 0  9999
2 44249 053.0029 010.9394 0002333 146.3610 213.7529 15.12387868004611
0 OBJECT Q
1 44249U 19029Q   19180.82995347  .00001135  00000-0  85831-4 0  9999
2 44249  53.0016   6.4460 0004181 177.0342 183.0674 15.10472693  5718
0 OBJECT R
1 44250U 19029R   19180.69746897  .00000965  00000-0  85460-4 0  9998
2 44250  53.0024   7.8152 0002464 119.9671 240.1562 15.05545206  5631
0 OBJECT R
1 44250U 19029R   19180.49832016  .00000966  00000-0  85245-4 0  9997
2 44250  53.0083   8.7137 0001904  76.5626 283.5574 15.05678941  5609
0 OBJECT R
1 44250U 19029R   19179.90094165  .00000976  00000-0  85575-4 0  9993
2 44250  53.0017  11.3914 0002363 123.8206 236.3007 15.05854261  5517
0 OBJECT S
1 44251U 19029S   19180.46957980  .00024233  00000-0  16756-2 0  9995
2 44251  52.9859   8.2254 0005196 190.7225 169.3653 15.05595000  5574
0 OBJECT T
1 44252U 19029T   19176.48646883  .00001121  00000-0  96462-4 0  9995
2 44252  52.9846  26.1091 0006269 199.4061 160.6689 15.05454708  4970
0 OBJECT U
1 44253U 19029U   19180.55449585  .00000852  00000-0  80370-4 0  9990
2 44253  53.0057   8.7011 0000960  43.2225 316.8838 15.04153879  5634
0 OBJECT U
1 44253U 19029U   19180.82018453  .00000882  00000-0  81060-4 0  9996
2 44253  53.0079   7.4971 0002952 128.4818 231.6434 15.04918277  5677
0 OBJECT U
1 44253U 19029U   19179.62397982 +.00000788 +00000-0 +77781-4 0  9999
2 44253 053.0073 012.8540 0002758 124.4658 235.6590 15.03107151004569
0 OBJECT U
1 44253U 19029U   19180.02288013  .00000828  00000-0  79768-4 0  9991
2 44253  53.0099  11.0638 0003547 156.0737 204.0416 15.03622128  5555
0 OBJECT V
1 44254U 19029V   19179.83134248 +.00000981 +00000-0 +86779-4 0  9999
2 44254 053.0009 011.7638 0002465 122.9859 237.1366 15.05442491004767
0 OBJECT V
1 44254U 19029V   19180.82717274  .00000944  00000-0  84264-4 0  9992
2 44254  53.0009   7.2944 0002487 126.6226 233.4991 15.05444499  5630
0 OBJECT W
1 44255U 19029W   19179.91913729 +.00000959 +00000-0 +84970-4 0  9994
2 44255 053.0043 011.0121 0002268 122.2282 237.8926 15.05579357004615
0 OBJECT W
1 44255U 19029W   19180.05190237  .00000958  00000-0  84919-4 0  9994
2 44255  53.0042  10.4160 0002274 122.6702 237.4506 15.05579898  5529
0 OBJECT X
1 44256U 19029X   19180.02695037  .00000926  00000-0  83128-4 0  9996
2 44256  53.0007  10.4862 0002178 112.9573 247.1645 15.05382579  5486
0 OBJECT X
1 44256U 19029X   19180.49169370  .00000940  00000-0  84122-4 0  9994
2 44256  53.0002   8.4010 0002218 116.1418 243.9798 15.05370072  5558
0 OBJECT Y
1 44257U 19029Y   19180.80138704  .00003903  00000-0  15708-3 0  9992
2 44257  53.0020   4.1280 0002094 108.2962 251.8263 15.27238123  5727
0 OBJECT Y
1 44257U 19029Y   19179.68889316 +.00003062 +00000-0 +12607-3 0  9999
2 44257 053.0022 009.2913 0002135 104.6628 255.4606 15.27226571004626
0 OBJECT AA
1 44259U 19029AA  19180.19298541  .00003384  00000-0  15853-3 0  9996
2 44259  53.0169   8.1167 0002488  97.1617 262.9661 15.22433890  5606
0 OBJECT AB
1 44260U 19029AB  19180.55679109  .00000919  00000-0  83774-4 0  9990
2 44260  53.0121   7.0478 0002622  83.3560 276.7727 15.04834152  5717
0 OBJECT AC
1 44261U 19029AC  19180.82972092  .00000977  00000-0  85384-4 0  9991
2 44261  53.0018   7.2453 0001933 132.0656 228.0496 15.05971407  5696
0 OBJECT AC
1 44261U 19029AC  19179.96642577  .00000872  00000-0  82088-4 0  9998
2 44261  53.0055  11.1164 0003238 116.9323 243.1995 15.04048571  5566
0 OBJECT AE
1 44263U 19029AE  19179.84463373 +.00001040 +00000-0 +90836-4 0  9990
2 44263 053.0036 011.4906 0002301 115.1337 244.9890 15.05470700004601
0 OBJECT AE
1 44263U 19029AE  19180.84044514  .00000972  00000-0  86145-4 0  9995
2 44263  53.0037   7.0213 0002311 117.8962 242.2261 15.05472916  5681
0 OBJECT AG
1 44265U 19029AG  19180.85681266 -.00000246  00000-0  23174-5 0  9998
2 44265  53.0018   6.6788 0002188 126.1964 233.9226 15.05516804  5718
0 OBJECT AG
1 44265U 19029AG  19180.52488665 -.00000245  00000-0  24189-5 0  9996
2 44265  53.0032   8.1710 0002531 113.0542 247.0713 15.05546628  5663
0 OBJECT AG
1 44265U 19029AG  19179.79466065 -.00004462  00000-0 -28735-3 0  9998
2 44265  53.0016  11.4459 0002641 117.1869 242.9388 15.05562630  5552
0 OBJECT AH
1 44266U 19029AH  19179.87096011 -.00006931 +00000-0 -45834-3 0  9990
2 44266 052.9963 010.9426 0002705 147.6987 212.4167 15.05466619004758
0 OBJECT AH
1 44266U 19029AH  19180.80038465  .00000802  00000-0  74472-4 0  9994
2 44266  52.9966   6.7693 0002937 153.1397 206.9743 15.05473844  5638
0 OBJECT AJ
1 44267U 19029AJ  19180.51878164  .00000864  00000-0  80556-4 0  9999
2 44267  52.9994   8.1329 0002813 127.5898 232.5345 15.04538524  5635
0 OBJECT AK
1 44268U 19029AK  19179.87449889 +.00000689 +00000-0 +66864-4 0  9996
2 44268 052.9995 011.2199 0002546 114.9889 245.1363 15.05354633004615
0 OBJECT AL
1 44269U 19029AL  19179.93287433  .00000940  00000-0  83850-4 0  9993
2 44269  52.9999  10.8302 0003538 146.9023 213.2187 15.05517071  5582
0 OBJECT AM
1 44270U 19029AM  19179.79586934 +.00000963 +00000-0 +85492-4 0  9996
2 44270 053.0012 011.4252 0002362 117.6982 242.4245 15.05476446004753
0 OBJECT AM
1 44270U 19029AM  19180.52612831  .00000924  00000-0  82813-4 0  9996
2 44270  53.0012   8.1475 0002332 118.5486 241.5737 15.05478041  5669
0 OBJECT AN
1 44271U 19029AN  19180.52836785  .00001611  00000-0  12956-3 0  9997
2 44271  53.0005   8.0938 0001760 105.6316 254.4866 15.05635296  5661
0 OBJECT AN
1 44271U 19029AN  19179.93094564 +.00001627 +00000-0 +13063-3 0  9998
2 44271 053.0005 010.7761 0001780 105.1591 254.9594 15.05633123004778
0 OBJECT AP
1 44272U 19029AP  19179.84001177 +.00000962 +00000-0 +85364-4 0  9992
2 44272 053.0012 011.5793 0002514 142.0357 218.0808 15.05493013004598
